MALLIGYONG-1            
1 58400U 23179A   24204.17439132  .00009576  00000+0  42760-3 0  9999
2 58400  97.3993  90.4302 0003585  85.1079 275.0566 15.21562326 37046
